{
    "satellites": [
        {
            "name": "starlink343",
            "title": "Starlink-343 (G6-98)",
            "tle": [
                "1 67473C 26008AE  26031.09701389 -.00018202  00000+0 -11808-3 0   314",
                "2 67473  43.0002  61.2320 0001635 269.2468 333.3839 15.75058438    13"
            ],
            "stdMag": 5,
            "noradId": "67473",
            "tleUrl": "http://celestrak.org/NORAD/elements/supplemental/sup-gp.php?FILE=starlink&FORMAT=tle",
            "launchDate": "2026-01-14T18:08:20.000Z",
            "active": true,
            "batch": [
                {
                    "noradId": "67473",
                    "tle": [
                        "1 67473C 26008AE  26031.09701389 -.00018202  00000+0 -11808-3 0   314",
                        "2 67473  43.0002  61.2320 0001635 269.2468 333.3839 15.75058438    13"
                    ]
                },
                {
                    "noradId": "67472",
                    "tle": [
                        "1 67472C 26008AD  26031.09354167  .00008815  00000+0  57179-4 0   310",
                        "2 67472  43.0001  61.2627 0001315 261.3541 317.7340 15.75034635    17"
                    ]
                },
                {
                    "noradId": "67471",
                    "tle": [
                        "1 67471C 26008AC  26031.09423611 -.01351600  00000+0 -85154-2 0   318",
                        "2 67471  43.0002  61.2805 0001014 285.3776 289.3306 15.77056992    15"
                    ]
                },
                {
                    "noradId": "67470",
                    "tle": [
                        "1 67470C 26008AB  26031.09354167 -.00161710  00000+0 -10471-2 0   316",
                        "2 67470  43.0002  61.2686 0001580 266.3863 310.5939 15.75242689    12"
                    ]
                },
                {
                    "noradId": "67468",
                    "tle": [
                        "1 67468C 26008Z   26031.09701389 -.01570800  00000+0 -96394-2 0   318",
                        "2 67468  43.0004  61.2744 0001058 268.1045 318.5288 15.77876403    12"
                    ]
                },
                {
                    "noradId": "67469",
                    "tle": [
                        "1 67469C 26008AA  26031.09770833 -.00597190  00000+0 -38398-2 0   319",
                        "2 67469  43.0002  61.2503 0001536 277.2238 320.8275 15.75836539    16"
                    ]
                },
                {
                    "noradId": "67467",
                    "tle": [
                        "1 67467C 26008Y   26031.09701389 -.00410190  00000+0 -26708-2 0   313",
                        "2 67467  43.0002  61.5355 0000996 279.2866 203.4525 15.75363974    12"
                    ]
                },
                {
                    "noradId": "67466",
                    "tle": [
                        "1 67466C 26008X   26031.09493056 -.00009303  00000+0 -60345-4 0   318",
                        "2 67466  43.0002  61.5526 0001663 259.0836 210.0424 15.75052300    16"
                    ]
                },
                {
                    "noradId": "67465",
                    "tle": [
                        "1 67465C 26008W   26031.09423611  .00002507  00000+0  16257-4 0   317",
                        "2 67465  43.0004  61.5618 0001533 262.5790 200.6869 15.75042957    18"
                    ]
                },
                {
                    "noradId": "67464",
                    "tle": [
                        "1 67464C 26008V   26031.09701389 -.00015522  00000+0 -10068-3 0   313",
                        "2 67464  43.0004  61.5505 0001594 254.0367 223.0784 15.75059438    12"
                    ]
                },
                {
                    "noradId": "67463",
                    "tle": [
                        "1 67463C 26008U   26031.09770833 -.00011016  00000+0 -71443-4 0   311",
                        "2 67463  43.0004  61.5513 0001570 270.4225 208.7122 15.75057142    15"
                    ]
                },
                {
                    "noradId": "67462",
                    "tle": [
                        "1 67462C 26008T   26031.09215278  .00002496  00000+0  16191-4 0   316",
                        "2 67462  43.0004  61.5892 0001205 265.0802 180.6073 15.75041500    14"
                    ]
                },
                {
                    "noradId": "67461",
                    "tle": [
                        "1 67461C 26008S   26031.09076389 -.00012450  00000+0 -80745-4 0   312",
                        "2 67461  43.0004  61.6026 0001595 271.9222 163.9482 15.75059032    14"
                    ]
                },
                {
                    "noradId": "67460",
                    "tle": [
                        "1 67460C 26008R   26031.09145833 -.00000001  00000+0 -90843-8 0   315",
                        "2 67460  43.0004  61.6031 0001467 259.7593 178.1479 15.75046039    19"
                    ]
                },
                {
                    "noradId": "67459",
                    "tle": [
                        "1 67459C 26008Q   26031.09006944  .00007506  00000+0  48691-4 0   317",
                        "2 67459  43.0004  61.6163 0001617 264.4054 163.7178 15.75033819    13"
                    ]
                },
                {
                    "noradId": "67458",
                    "tle": [
                        "1 67458C 26008P   26031.09076389  .00076437  00000+0  49540-3 0   318",
                        "2 67458  43.0004  61.6175 0000634 264.6684 165.4361 15.74987526    19"
                    ]
                },
                {
                    "noradId": "67457",
                    "tle": [
                        "1 67457C 26008N   26031.09284722  .00014349  00000+0  93095-4 0   318",
                        "2 67457  43.0004  61.6140 0001557 269.4805 168.6723 15.75023837    17"
                    ]
                },
                {
                    "noradId": "67455",
                    "tle": [
                        "1 67455C 26008L   26031.09562500  .00003266  00000+0  21186-4 0   317",
                        "2 67455  43.0004  61.5929 0001778 261.7901 194.0397 15.75036156    14"
                    ]
                },
                {
                    "noradId": "67456",
                    "tle": [
                        "1 67456C 26008M   26031.09701389  .00002198  00000+0  14258-4 0   313",
                        "2 67456  43.0004  61.5938 0001847 270.2200 189.6675 15.75034950    18"
                    ]
                },
                {
                    "noradId": "67454",
                    "tle": [
                        "1 67454C 26008K   26031.09770833 -.00028828  00000+0 -18708-3 0   314",
                        "2 67454  43.0004  61.5939 0001718 272.3601 189.5386 15.75060126    14"
                    ]
                },
                {
                    "noradId": "67453",
                    "tle": [
                        "1 67453C 26008J   26031.09562500  .00000538  00000+0  34924-5 0   319",
                        "2 67453  42.9993  61.2425 0001183 272.5386 320.2910 15.75042632    12"
                    ]
                },
                {
                    "noradId": "67452",
                    "tle": [
                        "1 67452C 26008H   26031.09354167 -.00026917  00000+0 -17457-3 0   317",
                        "2 67452  43.0004  61.6244 0001896 270.4199 165.8785 15.75073092    16"
                    ]
                },
                {
                    "noradId": "67451",
                    "tle": [
                        "1 67451C 26008G   26031.09284722 -.00074421  00000+0 -48242-3 0   314",
                        "2 67451  43.0004  61.6341 0001694 262.1711 168.2184 15.75130751    13"
                    ]
                },
                {
                    "noradId": "67450",
                    "tle": [
                        "1 67450C 26008F   26031.09493056 -.00154850  00000+0 -10027-2 0   319",
                        "2 67450  43.0004  61.6261 0002202 262.4117 177.7827 15.75233077    16"
                    ]
                },
                {
                    "noradId": "67449",
                    "tle": [
                        "1 67449C 26008E   26031.09145833 -.00257890  00000+0 -16672-2 0   314",
                        "2 67449  43.0005  61.6528 0001534 261.7351 156.6690 15.75374787    18"
                    ]
                },
                {
                    "noradId": "67448",
                    "tle": [
                        "1 67448C 26008D   26031.09145833 -.00362350  00000+0 -23389-2 0   314",
                        "2 67448  43.0005  61.6582 0001752 263.7925 152.5451 15.75513325    11"
                    ]
                },
                {
                    "noradId": "67447",
                    "tle": [
                        "1 67447C 26008C   26031.09840278 -.00443480  00000+0 -28590-2 0   311",
                        "2 67447  43.0005  61.6215 0001592 262.6496 191.0731 15.75623329    11"
                    ]
                },
                {
                    "noradId": "67446",
                    "tle": [
                        "1 67446C 26008B   26031.09701389 -.00565380  00000+0 -36384-2 0   313",
                        "2 67446  43.0005  61.6353 0001579 262.2966 181.4189 15.75785179    18"
                    ]
                },
                {
                    "noradId": "67445",
                    "tle": [
                        "1 67445C 26008A   26031.09562500 -.00675400  00000+0 -43330-2 0   316",
                        "2 67445  43.0005  61.6489 0001480 258.7188 174.9778 15.75965606    10"
                    ]
                }
            ]
        }
    ],
    "config": {}
}